CCSDS_OMM_VERS,COMMENT,CREATION_DATE,ORIGINATOR,OBJECT_NAME,OBJECT_ID,CENTER_NAME,REF_FRAME,TIME_SYSTEM,MEAN_ELEMENT_THEORY,EPOCH,MEAN_MOTION,ECCENTRICITY,INCLINATION,RA_OF_ASC_NODE,ARG_OF_PERICENTER,MEAN_ANOMALY,EPHEMERIS_TYPE,CLASSIFICATION_TYPE,NORAD_CAT_ID,ELEMENT_SET_NO,REV_AT_EPOCH,BSTAR,MEAN_MOTION_DOT,MEAN_MOTION_DDOT,SEMIMAJOR_AXIS,PERIOD,APOAPSIS,PERIAPSIS,OBJECT_TYPE,RCS_SIZE,COUNTRY_CODE,LAUNCH_DATE,SITE,DECAY_DATE,FILE,GP_ID,TLE_LINE0,TLE_LINE1,TLE_LINE2
"2.0","GENERATED VIA SPACE-TRACK.ORG API","2019-09-03T05:40:12","18 SPCS","AEOLUS","2018-066A","EARTH","TEME","UTC","SGP4","2019-09-03T01:07:53.927616","15.86872225","0.00053810","96.7201","251.7502","106.7863","325.0617","0","U","43600","999","5963","-0.00034710000000","-0.00087808","0.0000000000000","6689.195","90.744","314.659","307.460","PAYLOAD","LARGE","ESA","2018-08-22","FRGUI","","2591983","138415408","0 AEOLUS","1 43600U 18066A   19246.04715194 -.00087808  00000-0 -34710-3 0  9998","2 43600  96.7201 251.7502 0005381 106.7863 325.0617 15.86872225 59633"
"2.0","GENERATED VIA SPACE-TRACK.ORG API","2019-09-03T13:30:12","18 SPCS","AEOLUS","2018-066A","EARTH","TEME","UTC","SGP4","2019-09-03T12:03:42.601824","15.86900135","0.00039740","96.7258","252.1942","109.1511","42.6905","0","U","43600","999","5970","-0.00027643000000","-0.00070147","0.0000000000000","6689.116","90.742","313.640","308.323","PAYLOAD","LARGE","ESA","2018-08-22","FRGUI","","2592205","138419998","0 AEOLUS","1 43600U 18066A   19246.50257641 -.00070147  00000-0 -27643-3 0  9992","2 43600  96.7258 252.1942 0003974 109.1511  42.6905 15.86900135 59703"
"2.0","GENERATED VIA SPACE-TRACK.ORG API","2019-09-03T22:20:14","18 SPCS","STARLINK","2019-029AC","EARTH","TEME","UTC","SGP4","2019-09-03T19:36:59.023584","15.05508690","0.00022830","53.0011","71.0498","95.0054","265.1195","0","U","44261","999","1563","0.00007290900000","0.00000781","0.0000000000000","6928.081","95.648","551.528","548.364","PAYLOAD","LARGE","US","2019-05-24","AFETR","","2592509","138445155","0 STARLINK","1 44261U 19029AC  19246.81734981  .00000781  00000-0  72909-4 0  9998","2 44261  53.0011  71.0498 0002283  95.0054 265.1195 15.05508690 15639"
"2.0","GENERATED VIA SPACE-TRACK.ORG API","2019-09-04T04:18:46","18 SPCS","AEOLUS","2018-066A","EARTH","TEME","UTC","SGP4","2019-09-03T22:14:48.493824","15.86919474","0.00032700","96.7181","252.6150","120.1754","294.4253","0","U","43600","999","5977","-0.00001609600000","-0.00004246","0.0000000000000","6689.062","90.741","313.114","308.740","PAYLOAD","LARGE","ESA","2018-08-22","FRGUI","","2592679","138467390","0 AEOLUS","1 43600U 18066A   19246.92695016 -.00004246 +00000-0 -16096-4 0  9998","2 43600 096.7181 252.6150 0003270 120.1754 294.4253 15.86919474059771"
"2.0","GENERATED VIA SPACE-TRACK.ORG API","2019-09-04T04:18:46","18 SPCS","STARLINK","2019-029AC","EARTH","TEME","UTC","SGP4","2019-09-03T22:48:10.488960","15.05508963","0.00022670","53.0011","70.4539","95.0635","265.0612","0","U","44261","999","1471","0.00006982000000","0.00000736","0.0000000000000","6928.080","95.648","551.516","548.375","PAYLOAD","LARGE","US","2019-05-24","AFETR","","2592679","138467940","0 STARLINK","1 44261U 19029AC  19246.95012140 +.00000736 +00000-0 +69820-4 0  9997","2 44261 053.0011 070.4539 0002267 095.0635 265.0612 15.05508963014719"
"2.0","GENERATED VIA SPACE-TRACK.ORG API","2019-09-04T06:50:16","18 SPCS","AEOLUS","2018-066A","EARTH","TEME","UTC","SGP4","2019-09-03T23:45:48.089088","15.86923598","0.00033940","96.7175","252.6760","109.2313","306.1209","0","U","43600","999","5978","-0.00000939150000","-0.00002535","0.0000000000000","6689.050","90.741","313.186","308.645","PAYLOAD","LARGE","ESA","2018-08-22","FRGUI","","2592908","138492602","0 AEOLUS","1 43600U 18066A   19246.99013992 -.00002535  00000-0 -93915-5 0  9997","2 43600  96.7175 252.6760 0003394 109.2313 306.1209 15.86923598 59782"
"2.0","GENERATED VIA SPACE-TRACK.ORG API","2019-09-04T13:50:12","18 SPCS","AEOLUS","2018-066A","EARTH","TEME","UTC","SGP4","2019-09-04T13:39:20.823264","15.86969487","0.00043060","96.7222","253.2511","99.4757","20.6297","0","U","43600","999","5987","0.00005984900000","0.00015218","0.0000000000000","6688.921","90.738","313.667","307.906","PAYLOAD","LARGE","ESA","2018-08-22","FRGUI","","2592936","138492632","0 AEOLUS","1 43600U 18066A   19247.56899101  .00015218  00000-0  59849-4 0  9992","2 43600  96.7222 253.2511 0004306  99.4757  20.6297 15.86969487 59874"
"2.0","GENERATED VIA SPACE-TRACK.ORG API","2019-09-04T21:50:18","18 SPCS","AEOLUS","2018-066A","EARTH","TEME","UTC","SGP4","2019-09-04T17:55:13.387872","15.86976443","0.00039830","96.7227","253.4257","96.4603","318.1245","0","U","43600","999","5990","0.00004551300000","0.00011538","0.0000000000000","6688.902","90.738","313.431","308.103","PAYLOAD","LARGE","ESA","2018-08-22","FRGUI","","2593173","138536465","0 AEOLUS","1 43600U 18066A   19247.74668273  .00011538  00000-0  45513-4 0  9990","2 43600  96.7227 253.4257 0003983  96.4603 318.1245 15.86976443 59907"
"2.0","GENERATED VIA SPACE-TRACK.ORG API","2019-09-05T03:44:40","18 SPCS","STARLINK","2019-029AC","EARTH","TEME","UTC","SGP4","2019-09-04T21:06:30.628224","15.05511082","0.00022720","53.0011","66.2820","97.4757","262.6489","0","U","44261","999","1485","0.00007720400000","0.00000843","0.0000000000000","6928.074","95.648","551.513","548.365","PAYLOAD","LARGE","US","2019-05-24","AFETR","","2593400","138560717","0 STARLINK","1 44261U 19029AC  19247.87952116 +.00000843 +00000-0 +77204-4 0  9999","2 44261 053.0011 066.2820 0002272 097.4757 262.6489 15.05511082014858"
"2.0","GENERATED VIA SPACE-TRACK.ORG API","2019-09-05T06:50:16","18 SPCS","AEOLUS","2018-066A","EARTH","TEME","UTC","SGP4","2019-09-04T23:59:13.985088","15.86946226","0.00034630","96.7201","253.6778","87.3357","330.3757","0","U","43600","999","5994","0.00000754210000","0.00001793","0.0000000000000","6688.987","90.740","313.168","308.535","PAYLOAD","LARGE","ESA","2018-08-22","FRGUI","","2593577","138565306","0 AEOLUS","1 43600U 18066A   19247.99946742  .00001793  00000-0  75421-5 0  9991","2 43600  96.7201 253.6778 0003463  87.3357 330.3757 15.86946226 59941"
"2.0","GENERATED VIA SPACE-TRACK.ORG API","2019-09-05T06:20:14","18 SPCS","STARLINK","2019-029AC","EARTH","TEME","UTC","SGP4","2019-09-05T00:17:42.074592","15.05511286","0.00022900","53.0011","65.6860","97.0621","263.0627","0","U","44261","999","1581","0.00007739500000","0.00000846","0.0000000000000","6928.073","95.648","551.525","548.352","PAYLOAD","LARGE","US","2019-05-24","AFETR","","2593426","138561528","0 STARLINK","1 44261U 19029AC  19248.01229253  .00000846  00000-0  77395-4 0  9999","2 44261  53.0011  65.6860 0002290  97.0621 263.0627 15.05511286 15813"
"2.0","GENERATED VIA SPACE-TRACK.ORG API","2019-09-05T13:20:11","18 SPCS","AEOLUS","2018-066A","EARTH","TEME","UTC","SGP4","2019-09-05T12:21:40.427136","15.87000298","0.00060110","96.7116","254.1783","90.4636","30.9624","0","U","43600","999","6002","0.00000000000000","-0.00000137","0.0000000000000","6688.835","90.737","314.720","306.679","PAYLOAD","LARGE","ESA","2018-08-22","FRGUI","","2593593","138565335","0 AEOLUS","1 43600U 18066A   19248.51505124 -.00000137  00000-0  00000+0 0  9992","2 43600  96.7116 254.1783 0006011  90.4636  30.9624 15.87000298 60023"
"2.0","GENERATED VIA SPACE-TRACK.ORG API","2019-09-05T22:50:17","18 SPCS","AEOLUS","2018-066A","EARTH","TEME","UTC","SGP4","2019-09-05T19:57:15.153696","15.86951009","0.00028620","96.7170","254.4898","62.5310","64.8510","0","U","43600","999","6007","0.00001769200000","0.00004391","0.0000000000000","6688.973","90.740","312.753","308.924","PAYLOAD","LARGE","ESA","2018-08-22","FRGUI","","2593984","138593436","0 AEOLUS","1 43600U 18066A   19248.83142539  .00004391  00000-0  17692-4 0  9999","2 43600  96.7170 254.4898 0002862  62.5310  64.8510 15.86951009 60071"
"2.0","GENERATED VIA SPACE-TRACK.ORG API","2019-09-06T04:45:01","18 SPCS","STARLINK","2019-029AC","EARTH","TEME","UTC","SGP4","2019-09-05T21:00:26.324352","15.05513637","0.00022790","53.0012","61.8121","98.6155","261.5091","0","U","44261","999","1500","0.00007489700000","0.00000810","0.0000000000000","6928.066","95.648","551.510","548.352","PAYLOAD","LARGE","US","2019-05-24","AFETR","","2593996","138612258","0 STARLINK","1 44261U 19029AC  19248.87530468 +.00000810 +00000-0 +74897-4 0  9991","2 44261 053.0012 061.8121 0002279 098.6155 261.5091 15.05513637015009"
"2.0","GENERATED VIA SPACE-TRACK.ORG API","2019-09-06T11:30:12","18 SPCS","AEOLUS","2018-066A","EARTH","TEME","UTC","SGP4","2019-09-06T11:05:14.429184","15.86632549","0.00066920","96.7265","255.1221","101.1143","25.3116","0","U","43600","999","6017","0.00014973000000","0.00037787","0.0000000000000","6689.868","90.758","316.210","307.256","PAYLOAD","LARGE","ESA","2018-08-22","FRGUI","","2594173","138616690","0 AEOLUS","1 43600U 18066A   19249.46197256  .00037787  00000-0  14973-3 0  9998","2 43600  96.7265 255.1221 0006692 101.1143  25.3116 15.86632549 60173"
"2.0","GENERATED VIA SPACE-TRACK.ORG API","2019-09-06T14:20:15","18 SPCS","STARLINK","2019-029AC","EARTH","TEME","UTC","SGP4","2019-09-06T11:20:47.675328","15.05515090","0.00022680","53.0013","59.1301","99.4696","260.6549","0","U","44261","999","1603","0.00007220100000","0.00000771","0.0000000000000","6928.062","95.648","551.498","548.355","PAYLOAD","LARGE","US","2019-05-24","AFETR","","2594208","138617295","0 STARLINK","1 44261U 19029AC  19249.47277402  .00000771  00000-0  72201-4 0  9997","2 44261  53.0013  59.1301 0002268  99.4696 260.6549 15.05515090 16034"
